{
  "type": "FeatureCollection",
  "features": [
    {
      "type": "Feature",
      "properties": {
        "norad_id": 39617,
        "name": "ASTRA 5B (EGNOS/PRN 123)",
        "group": "gnss",
        "lat": 0.007668080392041007,
        "lon": -171.60083542253267,
        "alt_km": 35786.93437488086,
        "timestamp": "2025-12-26T04:40:06.029365+00:00",
        "meta_object_name": "ASTRA 5B (EGNOS/PRN 123)",
        "meta_object_id": "2014-011B",
        "meta_epoch": "2025-12-25T21:11:12.554016",
        "meta_mean_motion": 1.00271442,
        "meta_eccentricity": 0.00046678,
        "meta_inclination": 0.0452,
        "meta_ra_of_asc_node": 16.512,
        "meta_arg_of_pericenter": 264.2496,
        "meta_mean_anomaly": 155.1684,
        "meta_ephemeris_type": 0,
        "meta_classification_type": "U",
        "meta_norad_cat_id": 39617,
        "meta_element_set_no": 999,
        "meta_rev_at_epoch": 4293,
        "meta_bstar": 0,
        "meta_mean_motion_dot": 1.59e-06,
        "meta_mean_motion_ddot": 0,
        "tle_line1": "1 39617U 14011B   25359.88278419  .00000159  00000+0  00000+0 0  9997",
        "tle_line2": "2 39617   0.0452  16.5120 0004667 264.2496 155.1684  1.00271442 42939"
      },
      "geometry": {
        "type": "Point",
        "coordinates": [
          -171.60083542253267,
          0.007668080392041007
        ]
      }
    },
    {
      "type": "Feature",
      "properties": {
        "norad_id": 39620,
        "name": "COSMOS 2492 (754)",
        "group": "gnss",
        "lat": 9.161416133945188,
        "lon": -35.965389636497854,
        "alt_km": 19108.528225031863,
        "timestamp": "2025-12-26T04:40:06.029380+00:00",
        "meta_object_name": "COSMOS 2492 (754)",
        "meta_object_id": "2014-012A",
        "meta_epoch": "2025-12-24T18:34:00.043104",
        "meta_mean_motion": 2.13103196,
        "meta_eccentricity": 0.00142647,
        "meta_inclination": 65.401,
        "meta_ra_of_asc_node": 319.8627,
        "meta_arg_of_pericenter": 314.554,
        "meta_mean_anomaly": 45.3312,
        "meta_ephemeris_type": 0,
        "meta_classification_type": "U",
        "meta_norad_cat_id": 39620,
        "meta_element_set_no": 999,
        "meta_rev_at_epoch": 9152,
        "meta_bstar": 0,
        "meta_mean_motion_dot": -3.2e-07,
        "meta_mean_motion_ddot": 0,
        "tle_line1": "1 39620U 14012A   25358.77361161 -.00000032  00000+0  00000+0 0  9997",
        "tle_line2": "2 39620  65.4010 319.8627 0014264 314.5540  45.3312  2.13103196 91524"
      },
      "geometry": {
        "type": "Point",
        "coordinates": [
          -35.965389636497854,
          9.161416133945188
        ]
      }
    },
    {
      "type": "Feature",
      "properties": {
        "norad_id": 39635,
        "name": "IRNSS-1B",
        "group": "gnss",
        "lat": -11.142516662050355,
        "lon": -137.18933058893884,
        "alt_km": 35862.047270398885,
        "timestamp": "2025-12-26T04:40:06.029393+00:00",
        "meta_object_name": "IRNSS-1B",
        "meta_object_id": "2014-017A",
        "meta_epoch": "2025-12-24T18:29:47.559840",
        "meta_mean_motion": 1.00272104,
        "meta_eccentricity": 0.00185731,
        "meta_inclination": 29.2343,
        "meta_ra_of_asc_node": 243.3872,
        "meta_arg_of_pericenter": 174.7097,
        "meta_mean_anomaly": 8.021,
        "meta_ephemeris_type": 0,
        "meta_classification_type": "U",
        "meta_norad_cat_id": 39635,
        "meta_element_set_no": 999,
        "meta_rev_at_epoch": 4304,
        "meta_bstar": 0,
        "meta_mean_motion_dot": 1.4e-06,
        "meta_mean_motion_ddot": 0,
        "tle_line1": "1 39635U 14017A   25358.77068935  .00000140  00000+0  00000+0 0  9990",
        "tle_line2": "2 39635  29.2343 243.3872 0018573 174.7097   8.0210  1.00272104 43048"
      },
      "geometry": {
        "type": "Point",
        "coordinates": [
          -137.18933058893884,
          -11.142516662050355
        ]
      }
    },
    {
      "type": "Feature",
      "properties": {
        "norad_id": 39727,
        "name": "LUCH 5V (SDCM/PRN 141)",
        "group": "gnss",
        "lat": -0.6910286712378858,
        "lon": -100.33255683092827,
        "alt_km": 35771.28215526109,
        "timestamp": "2025-12-26T04:40:06.029410+00:00",
        "meta_object_name": "LUCH 5V (SDCM/PRN 141)",
        "meta_object_id": "2014-023A",
        "meta_epoch": "2025-12-25T18:50:44.640096",
        "meta_mean_motion": 1.00273844,
        "meta_eccentricity": 0.00037863,
        "meta_inclination": 4.7006,
        "meta_ra_of_asc_node": 71.4272,
        "meta_arg_of_pericenter": 214.6712,
        "meta_mean_anomaly": 185.8732,
        "meta_ephemeris_type": 0,
        "meta_classification_type": "U",
        "meta_norad_cat_id": 39727,
        "meta_element_set_no": 999,
        "meta_rev_at_epoch": 4262,
        "meta_bstar": 0,
        "meta_mean_motion_dot": -2.49e-06,
        "meta_mean_motion_ddot": 0,
        "tle_line1": "1 39727U 14023A   25359.78523889 -.00000249  00000+0  00000+0 0  9996",
        "tle_line2": "2 39727   4.7006  71.4272 0003786 214.6712 185.8732  1.00273844 42624"
      },
      "geometry": {
        "type": "Point",
        "coordinates": [
          -100.33255683092827,
          -0.6910286712378858
        ]
      }
    },
    {
      "type": "Feature",
      "properties": {
        "norad_id": 39741,
        "name": "GPS BIIF-6  (PRN 06)",
        "group": "gnss",
        "lat": 6.779548602146886,
        "lon": 153.74000684586278,
        "alt_km": 20270.32148377593,
        "timestamp": "2025-12-26T04:40:06.029422+00:00",
        "meta_object_name": "GPS BIIF-6  (PRN 06)",
        "meta_object_id": "2014-026A",
        "meta_epoch": "2025-12-24T23:00:25.010784",
        "meta_mean_motion": 2.00560429,
        "meta_eccentricity": 0.00394828,
        "meta_inclination": 56.5788,
        "meta_ra_of_asc_node": 338.3014,
        "meta_arg_of_pericenter": 319.3723,
        "meta_mean_anomaly": 40.3399,
        "meta_ephemeris_type": 0,
        "meta_classification_type": "U",
        "meta_norad_cat_id": 39741,
        "meta_element_set_no": 999,
        "meta_rev_at_epoch": 8504,
        "meta_bstar": 0,
        "meta_mean_motion_dot": -5.8e-07,
        "meta_mean_motion_ddot": 0,
        "tle_line1": "1 39741U 14026A   25358.95862281 -.00000058  00000+0  00000+0 0  9993",
        "tle_line2": "2 39741  56.5788 338.3014 0039482 319.3723  40.3399  2.00560429 85044"
      },
      "geometry": {
        "type": "Point",
        "coordinates": [
          153.74000684586278,
          6.779548602146886
        ]
      }
    },
    {
      "type": "Feature",
      "properties": {
        "norad_id": 40001,
        "name": "COSMOS 2500 (755)",
        "group": "gnss",
        "lat": -50.50858455383663,
        "lon": 173.42138932206723,
        "alt_km": 19116.766891669613,
        "timestamp": "2025-12-26T04:40:06.029436+00:00",
        "meta_object_name": "COSMOS 2500 (755)",
        "meta_object_id": "2014-032A",
        "meta_epoch": "2025-12-24T22:41:43.592352",
        "meta_mean_motion": 2.13106238,
        "meta_eccentricity": 0.0007709,
        "meta_inclination": 65.3365,
        "meta_ra_of_asc_node": 319.6177,
        "meta_arg_of_pericenter": 219.4903,
        "meta_mean_anomaly": 140.4561,
        "meta_ephemeris_type": 0,
        "meta_classification_type": "U",
        "meta_norad_cat_id": 40001,
        "meta_element_set_no": 999,
        "meta_rev_at_epoch": 8974,
        "meta_bstar": 0,
        "meta_mean_motion_dot": -3.2e-07,
        "meta_mean_motion_ddot": 0,
        "tle_line1": "1 40001U 14032A   25358.94564343 -.00000032  00000+0  00000+0 0  9990",
        "tle_line2": "2 40001  65.3365 319.6177 0007709 219.4903 140.4561  2.13106238 89745"
      },
      "geometry": {
        "type": "Point",
        "coordinates": [
          173.42138932206723,
          -50.50858455383663
        ]
      }
    },
    {
      "type": "Feature",
      "properties": {
        "norad_id": 40105,
        "name": "GPS BIIF-7  (PRN 09)",
        "group": "gnss",
        "lat": 50.50888710630461,
        "lon": -141.94735134512328,
        "alt_km": 20090.72682533806,
        "timestamp": "2025-12-26T04:40:06.029447+00:00",
        "meta_object_name": "GPS BIIF-7  (PRN 09)",
        "meta_object_id": "2014-045A",
        "meta_epoch": "2025-12-23T13:11:32.096256",
        "meta_mean_motion": 2.00573211,
        "meta_eccentricity": 0.00324114,
        "meta_inclination": 55.2352,
        "meta_ra_of_asc_node": 95.4677,
        "meta_arg_of_pericenter": 120.1575,
        "meta_mean_anomaly": 240.1743,
        "meta_ephemeris_type": 0,
        "meta_classification_type": "U",
        "meta_norad_cat_id": 40105,
        "meta_element_set_no": 999,
        "meta_rev_at_epoch": 8255,
        "meta_bstar": 0,
        "meta_mean_motion_dot": 8e-08,
        "meta_mean_motion_ddot": 0,
        "tle_line1": "1 40105U 14045A   25357.54967704  .00000008  00000+0  00000+0 0  9994",
        "tle_line2": "2 40105  55.2352  95.4677 0032411 120.1575 240.1743  2.00573211 82556"
      },
      "geometry": {
        "type": "Point",
        "coordinates": [
          -141.94735134512328,
          50.50888710630461
        ]
      }
    }
  ]
}